STARLINK-31303          
1 59239U 24049J   26068.51233289 -.00000356  00000+0 -34210-5 0  9992
2 59239  43.0029 133.6902 0001716 276.0007  84.0649 15.27569977112507
FLOCK 4G-10             
1 62670U 25009BP  26068.70827885  .00013952  00000+0  52624-3 0  9995
2 62670  97.3967 150.5883 0003469 341.4844  18.6269 15.27155944121340
